OBJECT_NAME,OBJECT_ID,EPOCH,MEAN_MOTION,ECCENTRICITY,INCLINATION,RA_OF_ASC_NODE,ARG_OF_PERICENTER,MEAN_ANOMALY,EPHEMERIS_TYPE,CLASSIFICATION_TYPE,NORAD_CAT_ID,ELEMENT_SET_NO,REV_AT_EPOCH,BSTAR,MEAN_MOTION_DOT,MEAN_MOTION_DDOT
SL-12 R/B(2),1985-042D,2026-06-06T16:32:31.898112,14.22004008,.0035732,71.1086,259.6951,343.7567,120.5638,0,U,15772,999,12704,.78988E-4,.128E-5,0
SL-14 R/B,1985-069B,2026-06-07T03:20:53.524896,14.86507691,.0017282,82.5264,300.8161,254.8771,105.0534,0,U,15945,999,18612,.51458E-4,.48E-5,0
SL-16 R/B,1985-097B,2026-06-07T04:36:17.542080,14.16612393,.000568,71.0037,312.1213,131.3032,41.0011,0,U,16182,999,9990,.31127E-4,.14E-6,0
SL-14 R/B,1986-006B,2026-06-07T07:03:22.081248,14.86935800,.00757006,82.5261,175.4234,336.7309,23.0486,0,U,16496,999,16252,.64345396E-4,.632E-5,0
COSMOS 1743,1986-034A,2026-06-07T05:53:34.398528,15.66050384,.0003506,82.5281,339.2962,318.9063,41.1933,0,U,16719,999,19423,.47723095E-3,.49014E-3,0
SL-14 R/B,1986-046B,2026-06-06T15:30:20.135232,14.85664022,.0021689,82.4818,356.1373,295.7160,64.1817,0,U,16792,999,13961,.41353E-4,.384E-5,0
SL-14 R/B,1986-055B,2026-06-06T23:11:01.270752,14.85716018,.0019894,82.5212,42.7426,40.4296,330.1767,0,U,16882,999,13262,.47535E-4,.438E-5,0
AJISAI (EGS),1986-061A,2026-06-07T07:49:04.474272,12.44516709,.00112732,50.0071,177.7196,155.5571,218.8013,0,U,16908,999,47916,-.29800712E-4,-.102E-5,0
SL-14 R/B,1987-024B,2026-06-06T20:22:47.284896,14.86206301,.00174182,82.5284,8.9686,329.8134,30.2077,0,U,17567,999,10137,.40903152E-4,.384E-5,0
COSMOS 1833,1987-027A,2026-06-07T04:44:41.909856,14.13042482,.0022556,70.9153,137.8661,71.8080,288.5494,0,U,17589,999,2296,.18607E-3,.3E-5,0
SL-16 R/B,1987-027B,2026-06-06T13:23:24.046944,14.17171015,.000597,71.0029,89.2267,325.2093,34.8639,0,U,17590,999,2793,.13685E-3,.228E-5,0
SL-14 R/B,1987-038B,2026-06-06T22:58:28.936704,14.85439251,.001808,82.5014,212.7076,226.3363,133.6356,0,U,17912,999,9248,.3989E-4,.369E-5,0
COSMOS 1844,1987-041A,2026-06-06T13:41:53.772864,14.14570090,.0033278,70.8988,206.7004,250.8672,108.8846,0,U,17973,999,1615,-.2698197E-4,-.101E-5,0
SL-14 R/B,1987-055B,2026-06-07T01:16:47.469216,14.85703837,.002214,82.4996,264.7816,79.1213,281.2493,0,U,18153,999,8320,.51059E-4,.469E-5,0
COSMOS 1867,1987-060A,2026-06-07T00:04:52.748256,14.31514682,.0016293,65.0116,56.5791,282.0367,77.8892,0,U,18187,999,3272,.26964E-4,-.28E-6,0
SL-14 R/B,1988-001B,2026-06-06T13:59:44.159136,14.85601857,.0016767,82.5123,111.7492,307.7939,52.1758,0,U,18749,999,5522,.55022E-4,.501E-5,0
COSMOS 1933,1988-020A,2026-06-07T06:51:51.722784,15.18651243,.00025319,82.5122,162.2400,228.3729,131.7288,0,U,18958,999,6382,.21297902E-3,.4441E-4,0
SL-3 R/B,1988-032B,2026-06-06T23:29:31.541856,15.20763048,.0023675,97.5254,141.0307,283.4061,76.4536,0,U,19046,999,6567,.22539E-3,.4928E-4,0
SL-16 R/B,1988-039B,2026-06-06T23:23:00.314016,14.19628725,.0022797,71.0149,239.7530,208.1906,151.7987,0,U,19120,999,97105,.92357E-4,.147E-5,0
COSMOS 1953,1988-050A,2026-06-07T00:16:49.883808,15.29833382,.001126,82.5077,68.2936,158.3325,201.8394,0,U,19210,999,5143,.29116E-3,.8459E-4,0
SL-8 R/B,1988-053B,2026-06-06T16:57:32.984928,14.38963737,.00192607,74.0477,308.3768,107.5146,263.7375,0,U,19257,999,98940,.10581363E-3,.301E-5,0
COSMOS 1975,1988-093A,2026-06-06T16:26:25.420416,15.29189896,.0010356,82.5200,28.2651,209.1672,150.8991,0,U,19573,999,3300,.27708E-3,.7891E-4,0
SL-14 R/B,1988-093B,2026-06-07T04:35:28.979232,14.85734392,.0022167,82.5305,318.0302,101.3095,71.2644,0,U,19574,999,1430,.58376E-4,.534E-5,0
SL-16 R/B,1988-102B,2026-06-07T04:29:23.399232,14.16166729,.0016114,71.0005,323.1810,239.1466,120.8073,0,U,19650,999,93956,.17258E-4,-.14E-6,0
INTERCOSMOS 24,1989-080A,2026-06-06T16:35:33.805536,12.59644884,.11883273,82.6075,46.4732,86.2375,287.3481,0,U,20261,999,67800,.26130597E-3,.919E-5,0
SL-14 R/B,1989-080C,2026-06-07T03:54:24.043392,12.50563895,.12293313,82.5918,115.7472,340.3373,15.3974,0,U,20262,999,67133,.14140934E-3,.474E-5,0
DELTA 1 R/B,1989-089B,2026-06-07T06:53:28.882176,14.50724866,.00683951,97.0640,351.4295,198.2662,161.6079,0,U,20323,999,90872,.10365382E-3,.384E-5,0
ARIANE 40 R/B,1990-005H,2026-06-06T14:54:51.526080,14.39921906,.00089195,98.2964,215.5656,300.8443,59.1867,0,U,20443,999,90560,.98236899E-4,.267E-5,0
DELTA 2 R/B(1),1990-008B,2026-06-06T02:41:03.363072,15.67094261,.0068397,35.5996,309.6616,9.6562,350.5477,0,U,20453,999,93996,.79153E-3,.10086E-2,0
COSMOS 2058,1990-010A,2026-06-06T13:07:07.945536,15.11943112,.00104568,82.4665,319.8499,36.0110,324.1822,0,U,20465,999,95566,.22125667E-3,.3825E-4,0
